Orbital elements:
2022 BA                                             PHA, Earth MOID = 0.0209 AU
Epoch 2022 Jan. 21.0 TT = JDT 2459600.5                 Veres                   
M 105.75223              (2000.0)            P               Q                  
n   1.35736377     Peri.  223.40870     +0.82615014     +0.34695864             
a   0.8078645      Node   111.20736     -0.29065771     +0.93742080             
e   0.4021005      Incl.   28.43780     -0.48269457     +0.02935882             
P   0.73           H   21.37          G   0.15           U   7                  
Residuals in seconds of arc
220119 T08  0.3+  0.7+    220119 L06  0.3-  0.3+    220120 203  0.2-  0.1+
220119 T08  0.7+  1.3-    220119 L06  0.2-  0.3+    220120 104  0.1-  0.1+
220119 T08  0.5-  0.4+    220119 L06  0.0   0.0     220120 104  0.1+  0.3+
220119 T08  0.2-  0.5-    220119 Z80  0.6-  0.2+    220120 104  0.4-  0.3-
220119 G02  0.0   0.1+    220119 Z80  0.5-  0.1-    220120 958  1.1+  2.0+
220119 G02  0.2+  0.1+    220120 654  0.1+  0.0     220120 958  1.0+  1.3+
220119 J95  0.0   0.1+    220120 654  0.0   0.0     220120 958  0.4+  0.6+
220119 204  0.0   0.1-    220120 654  0.1+  0.0     220121 H36  0.0   0.6+
220119 J95  0.3+  0.2+    220120 G14  0.7-  0.9-    220121 H36  0.3+  0.3+
220119 J95  0.0   0.1+    220120 Z99  0.2-  0.1-    220121 H36  0.2+  0.1+
220119 204  0.0   0.1-    220120 Z99  0.1-  0.0     220121 734  0.2-  0.2-
220119 J95  0.0   0.0     220120 G14  0.5+  0.1-    220121 734  0.7-  0.7-
220119 204  0.2+  0.1-    220120 Z99  0.2-  0.0     220121 734  0.6+  0.7+
220119 J57  0.3+  0.7+    220120 G15  0.6-  0.4-    220121 734  0.1+  0.5-
220119 Z33  0.2+  0.3-    220120 J95  0.2+  0.1+    220121 734  0.0   0.1-
220119 J57  0.3+  0.5+    220120 G14  0.4+  0.5-    220121 734  0.3+  0.1+
220119 Z33  0.1-  0.1+    220120 J95  0.0   0.1+    220121 858  0.1-  0.1-
220119 G02  0.4-  0.1-    220120 J95  0.1-  0.1+    220121 858  0.0   0.2+
220119 Z33  0.8-  0.3+    220120 G15  0.9+  0.7+    220121 858  0.4+  0.1+
220119 J57  0.0   0.1+    220120 J95  0.1-  0.1-    220121 G96  0.1+  0.0
220119 J69  0.7-  0.4-    220120 G15  0.0   0.2-    220121 G96  0.1+  0.4-
220119 J69  0.2-  0.1-    220120 203  0.5-  0.0
220119 J69  0.1+  0.1+    220120 203  0.4+  0.0

Ephemeris:
2022 BA                  a,e,i = 0.81, 0.40, 28                  q = 0.4830
Date    TT    R. A. (2000) Decl.     Delta      r    Elong.  Phase     V
2021 12 22    18 21 13.8 -61 18 57   0.2576  0.7968    38.1   130.5    23.7
...
2022 01 06    20 41 06.3 -55 22 35   0.1011  0.9049    37.2   138.9    22.9
...
2022 01 14    23 22 29.3 -07 20 25   0.05263 0.9544    55.1   122.3    19.9
...
2022 01 20    01 00 57.1 +38 02 01   0.08164 0.9876    90.2    85.1    18.9
2022 01 21    01 13 16.8 +41 40 04   0.08988 0.9928    93.0    81.8    19.0
2022 01 22    01 24 36.2 +44 36 37   0.09853 0.9979    95.2    79.2    19.1
...
2022 01 28    02 16 18.6 +54 13 26   0.1546  1.0265   101.3    70.2    19.8
...
2022 02 05    03 00 12.8 +58 51 05   0.2327  1.0592   102.1    65.5    20.6
...
2022 02 20    03 55 28.1 +61 42 51   0.3759  1.1044    97.8    62.5    21.7

M. P. C. Staff               (C) Copyright 2022 MPC           M.P.E.C. 2022-B09
 Read MPEC 2022-B08
 Read MPEC 2022-B10 MPEC number:  

Enter an MPEC number in one of the following forms:

1997-B01 (the full form)
J97B01 (the packed version of the full form)
B01 (the abbreviated form)

Home
About

Contact
Privacy

The Minor Planet Center is hosted by the Center for Astrophysics | Harvard & Smithsonian.The Minor Planet Center is funded by NASA.
